#dP2024 11 19  0  0  0.00000000      97 __u+U IGS20 FIT  IAC
## 2341 172800.00000000   900.00000000 60633 0.0000000000000
+  117   C06C07C08C09C10C11C12C13C14C16C19C20C21C22C23C24C25
+        C26C27C28C29C30C32C33C34C35C36C37C38C39C40C41C42C43
+        C44C45E02E03E04E05E06E07E08E09E10E11E12E13E14E15E18
+        E19E21E24E25E26E27E29E30E31E33E34E36G02G03G04G05G06
+        G07G08G09G10G11G12G13G14G15G16G17G18G19G20G21G22G23
+        G24G25G26G27G28G29G30G31G32J02J03J04R01R03R04R05R07
+        R08R09R11R12R14R15R16R17R18R19R20R21R22R24R26  0  0
++         7  7  8  7  7  7  6  9  6  7  5  6  6  5  5  5  5
++         5  5  5  6  6  5  5  6  5  6  5  6  6  6  5  6  6
++         5  6  4  4  4  4  4  3  4  4  4  4  4  4  4  4  4
++         4  4  4  4  4  4  4  4  4  4  4  4  3  3  3  3  3
++         3  3  3  3  3  3  3  3  3  4  3  3  3  4  3  3  3
++         3  3  4  3  3  3  3  3  3 11 11 10  7  6  7  6  6
++         6  7  7  7  6  6  6  6  6  7  7  7  7  6  7  0  0
%c M  cc GPS ccc cccc cccc cccc cccc ccccc ccccc ccccc ccccc
%c cc cc ccc ccc cccc cccc cccc cccc ccccc ccccc ccccc ccccc
%f  1.2500000  1.025000000  0.00000000000  0.000000000000000
%f  0.0000000  0.000000000  0.00000000000  0.000000000000000
%i    0    0    0    0      0      0      0      0         0
%i    0    0    0    0      0      0      0      0         0
/* INFORMATION & ANALYSIS CENTER (IAC)            FINAL DATA
/* S/V CLOCKS ARE ALIGNED TO GNSS TIME                      
/* G:C1WC2W R:C1PC2P E:C1XC5X C:C2IC6I J:C1CC2S             
/* PCV:IGS20_2317 OL/AL:FES2004  NONE     YN ORB:CoN CLK:CoN
*  2024 11 19  1 45  0.00000000
PC06  -5186.778589  39794.786739  13488.183295    451.631680
PC07  -8056.051112  26645.395820 -31558.519975   -192.630823
PC08 -20283.441760  30686.323389  20379.950472   -807.258333
PC09  -1875.160299  42023.792353   6682.848607   -652.132975
PC10   -135.982056  28024.615510 -31071.733916   -290.031627
PC11 -18637.527357 -18009.400541 -10278.999698    249.275622
PC12  -9000.165058 -25176.552610   8046.344976   -246.853833
PC13 -13527.144546  31200.316904  24902.967494     87.537778
PC14 -23308.817503  -7802.411394 -13259.013132   -444.620488
PC16  -7697.919439  37995.632418  17336.031228     91.918294
PC19  27411.206700   1948.149616   4812.784285   -967.261327
PC20  17009.562350  11765.261840  18724.624309   -906.500180
PC21   4909.929754 -15456.006299 -22701.916726   -913.804811
PC22  22797.260334  -9662.234867 -12865.635946    183.365724
PC23 -18323.532558  17674.965718  11413.952657   -890.236093
PC24  -5942.580791 -19167.833995  19381.863305    761.370564
PC25 -17215.177594   -715.070805  21932.722121    564.859802
PC26   8042.490570 -26118.863060   5718.892245   -379.234910
PC27   1693.660231  23108.465292 -15570.454577    398.213852
PC28 -11347.543833  11829.604237 -22573.267210    310.104496
PC29  20600.374268   9383.966102  16318.499637    364.094847
PC30  15555.529189  23172.399555   -614.737597     30.827850
PC32  -4967.469989  15503.370115  22674.098983   -808.014987
PC33 -27420.010006  -1823.607841  -4896.955305   -950.129502
PC34 -16527.408747 -22446.228145  -1133.458532    567.363137
PC35  11505.551569 -11619.368411  22600.403387    204.458203
PC36  17365.706650    604.607153 -21824.849425    223.707469
PC37  -8765.316815  25897.645990  -5505.546910   -893.462227
PC38 -23845.238161  32001.978388  13422.414762    192.087167
PC39  -7961.184776  35884.191438  20920.580855    -10.364790
PC40 -12615.903939  20329.254867 -34714.646220   -103.369497
PC41 -23413.307645   9307.309700  12059.865281   -889.167415
PC42 -15278.319782 -12504.412267 -19697.733584   -518.350322
PC43 -20738.589165 -10267.040016 -15589.737597     92.648506
PC44  -2403.245817 -22999.750192  15590.962472    656.506969
PC45  18487.523959 -17207.302328 -11910.444867   -170.169106
PE02 -12397.198121 -12231.381486  23926.382170    175.850677
PE03 -20632.404793 -19645.972676  -8060.168571   -154.390574
PE04  26420.741922   7668.659406 -10924.867068    -85.835746
PE05  -2844.592357 -19777.804178 -21842.815199   4802.982802
PE06  23232.682422   -621.073963 -18356.334026    -49.034998
PE07 -16973.427552   8110.532016  22851.836800   -153.613482
PE08 -26471.345567  -8346.222617  10288.443135   -370.192947
PE09  16949.285204  -7950.627959 -22932.214533   -668.691155
PE10  15599.668925  -8468.158241  23693.194173   -670.831333
PE11  12770.590835 -19377.496006  18369.087490    705.259633
PE12  15965.104240   2311.959369  24823.524510  -1302.145056
PE13 -12918.871709  18868.381099 -18783.910056    -26.963712
PE14 -21638.273007 -20807.614900   7766.471930    390.419228
PE15 -15812.290308  -3154.444860 -24808.521125   -139.966205
PE18  10616.217348  19352.543078 -12612.423347    788.774163
PE19  19282.444342  20249.563525   9717.057794    955.994049
PE21  -7989.786189  19993.429255 -20312.871753   -629.155345
PE24  24428.548148 -16118.509829   4499.312404  -1107.569440
PE25   8473.426597 -20050.773116  20064.735880     11.379808
PE26  -2219.270355  29478.884785  -1421.432444   -207.547940
PE27 -24328.367167  16212.454094  -4590.774222   -507.773891
PE29   3151.376579  20032.314600  21556.868991    -46.815504
PE30 -26155.162143   2904.983329  13524.925463   -940.190286
PE31  26115.180544  -2929.671590 -13626.382611    -43.457242
PE33   9157.425192  23260.639464  15854.666771     16.177279
PE34  -9407.321849 -22955.648155 -16151.490435   -146.764652
PE36   2571.464814 -29422.731135   1959.115682   -313.116571
PG02  14208.252692  -7224.170927  21665.075296   -311.413436
PG03  23178.476218 -12655.304235   2034.959308    603.544375
PG04  18798.773239  -3813.480614 -18422.045852    481.840826
PG05 -21201.374105   1298.332675 -16164.174325   -193.428847
PG06  -5582.955208 -24647.035515  -7911.524504   -125.408612
PG07   7293.059589 -22425.334567 -11223.402952    -19.359524
PG08  24656.031860   4648.728245   9247.558605    417.252317
PG09  10234.538937 -11783.280518 -21589.504834    449.949244
PG10    243.849807  16265.317049  21143.514214   -201.166033
PG11 -12432.262021 -14714.157341 -18273.126655   -750.622939
PG12 -24426.955379   8509.458452   5635.647181   -552.988221
PG13 -22607.311476 -13706.513109   3422.931011    686.599427
PG14   3838.595739 -18181.682138  18937.334745    542.729300
PG15 -24801.871884  -1517.382124   9064.552511    229.446991
PG16  18817.040871   5015.423799 -18606.804556   -124.810464
PG17  -5686.855543 -18498.158234  18520.677913    553.274335
PG18  -6400.924548  23661.519693  -9906.661962   -660.459592
PG19 -15403.425016 -19151.700986  10460.415043    564.374348
PG20 -13589.034471  -7953.412690 -21291.784302    368.618075
PG21  15558.142153    647.325420  21965.370199     97.119468
PG22  -3809.707130 -15204.215122  21864.561117    -80.447881
PG23 -13320.273540  18990.091395  12761.127061    366.147456
PG24 -14922.035449   5049.087175  20890.532782   -479.428674
PG25 -18645.827187  17674.558983  -6513.334980    498.899618
PG26   9669.780609  12686.857921 -21410.779233     21.367180
PG27  23400.358120  13037.240015  -1053.355989    -34.676050
PG28   5604.837793  25333.481946  -5689.552903   -483.233644
PG29 -11787.233131  10103.410747 -21607.515563   -562.721345
PG30   -235.117419 -26390.917278   -928.852696   -279.055389
PG31  11117.853533  18557.794124 -15398.693101   -221.512881
PG32  10009.225358  18339.824285  16739.318815   -571.762966
PJ02 -35409.231204  18697.844956  -8566.710972      0.348983
PJ03 -20096.626368  28748.255330 -18754.533709     -7.004890
PJ04 -28661.668552  26981.717984  21001.329831     21.623162
PR01  17011.679581   9555.636062  16423.829726    104.886354
PR03  19531.094083  -4799.368301 -15690.403628    111.646886
PR04   3416.675230 -10250.779350 -23082.494822    264.618600
PR05 -14467.974676 -10566.733171 -18136.153821    140.910728
PR07 -19095.808038   5044.268455  16143.131002     95.261082
PR08  -2983.834409  10485.601659  23115.298962     -6.239308
PR09 -14786.594462   3140.974228  20587.147540    221.350711
PR11 -11473.415566  21419.005852  -7783.739965      6.613604
PR12   2981.710340  13197.125695 -21600.773604     47.401301
PR14  17395.147287 -16851.984457  -7967.095055     27.253355
PR15  10449.577328 -21258.525417   9470.312519     73.976657
PR16  -2803.155799 -13219.363757  21632.396054     30.909519
PR17   7531.396926  -9101.274617  22629.792292    141.109140
PR18  -1723.176760 -21458.112205  13673.044442    172.573848
PR19  -8731.388540 -23968.372555   -472.959486   -298.952365
PR20 -12898.663516 -10758.042607 -19167.315650   -122.081772
PR21  -8053.804579   7931.414697 -22854.748939   -152.479579
PR22   1812.979575  22178.053104 -12445.710025    -14.528059
PR24  13742.533678   9475.559716  19304.167067    -80.685451
PR26  -4922.746569  10138.146159  22901.143025   -133.428605
EOF
